DUBAISAT-2              
1 39419U 13066D   25155.50833107  .00003287  00000+0  22732-3 0  9995
2 39419  97.4329 152.2581 0010140 244.1882 115.8300 15.06343365629462
GPM-CORE                
1 39574U 14009C   25155.51684179  .00007626  00000+0  16485-3 0  9998
2 39574  64.9752 133.2085 0013535 268.3170  91.6421 15.45138176639494
SENTINEL-1A             
1 39634U 14016A   25155.53906816  .00000207  00000+0  53549-4 0  9991
2 39634  98.1789 163.5462 0001378  90.6593 269.4765 14.59201486594947
KAZEOSAT 1              
1 39731U 14024A   25155.49162091  .00000227  00000+0  82173-4 0  9999
2 39731  98.3595 231.4765 0001286  98.8863 261.2473 14.42051106584120
ALOS-2                  
1 39766U 14029A   25155.54496388  .00002129  00000+0  29191-3 0  9990
2 39766  97.9207 253.1286 0001608  97.4177 262.7217 14.79468432595749
KAZEOSAT 2              
1 40010U 14033A   25155.52315203  .00000709  00000+0  89662-4 0  9995
2 40010  97.5745   9.5071 0010322 122.1537 238.0681 14.84669248592900
HODOYOSHI-4             
1 40011U 14033B   25155.57489211  .00001668  00000+0  19215-3 0  9993
2 40011  97.5532 353.8812 0025621 114.9392 245.4491 14.86734997592670
DEIMOS-2                
1 40013U 14033D   25155.56374022  .00002132  00000+0  21548-3 0  9996
2 40013  97.6353  37.5246 0002256 102.7999 257.3472 14.92043509581384
HODOYOSHI-3             
1 40015U 14033F   25155.44275205  .00001528  00000+0  18787-3 0  9997
2 40015  97.6092 329.8770 0034332 156.0174 204.2649 14.83993879591575
SPOT 7                  
1 40053U 14034A   25155.53837434  .00000593  00000+0  13182-3 0  9993
2 40053  98.1120 221.7680 0001277  84.1725 275.9621 14.60453837582003
SKYSAT-B                
1 40072U 14037D   25155.56147800  .00001504  00000+0  17669-3 0  9998
2 40072  98.3424  89.6220 0007162  67.2525 292.9446 14.86516771589830
WORLDVIEW-3 (WV-3)      
1 40115U 14048A   25155.43597597  .00001215  00000+0  14746-3 0  9998
2 40115  97.8586 229.9867 0007031 117.6144 242.5785 14.85342410585849
GAOFEN-2                
1 40118U 14049A   25155.59717146  .00001202  00000+0  16396-3 0  9992
2 40118  98.0600 214.1718 0004944  23.1692 336.9741 14.80505069583363
YAOGAN-21               
1 40143U 14053A   25155.51240473  .00006553  00000+0  27579-3 0  9990
2 40143  97.1998 206.7444 0012412  36.7512 323.4574 15.23629444597423
YAOGAN-22               
1 40275U 14063A   25155.28532807 -.00000011  00000+0  94266-4 0  9998
2 40275 100.7157 296.2605 0005900 325.1870  34.8854 13.15511405510128
ASNARO                  
1 40298U 14070A   25155.57696420  .00009462  00000+0  44712-3 0  9993
2 40298  97.3788 235.9756 0004683  73.6502 286.5247 15.19610150586662
YAOGAN-24               
1 40310U 14072A   25155.59573961  .00000953  00000+0  14510-3 0  9995
2 40310  98.0985 285.9661 0014980  43.1750 317.0631 14.76194822568013
CBERS 4                 
1 40336U 14079A   25155.60359672  .00000158  00000+0  69686-4 0  9995
2 40336  98.3535 219.8500 0001553  63.4130 296.7215 14.35507346549780
YAOGAN-26               
1 40362U 14088A   25155.57868181  .00011215  00000+0  35823-3 0  9991
2 40362  97.0641 164.1018 0005159   0.3364 359.7881 15.32607950579618
SMAP                    
1 40376U 15003A   25155.50659555  .00000616  00000+0  12812-3 0  9996
2 40376  98.1273 162.9260 0001804  93.0344 267.1064 14.63403724552387
KOMPSAT-3A              
1 40536U 15014A   25155.54868410  .00011665  00000+0  32672-3 0  9994
2 40536  97.6554 120.9085 0006006 105.0120 255.1789 15.36776175563539
SENTINEL-2A             
1 40697U 15028A   25155.52239319  .00000161  00000+0  78156-4 0  9992
2 40697  98.5694 230.7843 0001295  97.7281 262.4049 14.30820048519728
GAOFEN-8                
1 40701U 15030A   25155.61025081  .00013659  00000+0  44252-3 0  9995
2 40701  97.6888 325.5945 0013689 100.2671 260.0114 15.32049300553393
CARBONITE 1 (CBNT-1)    
1 40718U 15032D   25155.59463983  .00002135  00000+0  27634-3 0  9991
2 40718  97.6446 345.1901 0016468  92.8889 267.4210 14.81763658533394
YAOGAN-27               
1 40878U 15040A   25155.50637510 -.00000019  00000+0  61028-4 0  9993
2 40878 100.0863 153.8598 0008409  11.9187 348.2124 13.16049208467986
GAOFEN-9 01             
1 40894U 15047A   25155.60019173  .00001222  00000+0  16010-3 0  9994
2 40894  97.6774 202.5488 0026496 299.1802  60.6761 14.81854730524259
LAPAN-A2                
1 40931U 15052B   25151.18580175  .00001241  00000+0  78118-4 0  9995
2 40931   6.0006  24.0987 0012733 338.8432  21.1169 14.78805930523047
YAOGAN-28               
1 41026U 15064A   25155.52943301  .00007687  00000+0  31916-3 0  9994
2 41026  97.2568 299.2343 0015774  76.1193 284.1799 15.23989856533136
YAOGAN-29               
1 41038U 15069A   25155.57048042  .00000559  00000+0  76158-4 0  9994
2 41038  98.0345 177.9305 0002283 131.8842 228.2566 14.82631596514669
KENT RIDGE 1            
1 41167U 15077B   25155.43900046  .00003719  00000+0  13447-3 0  9994
2 41167  14.9787 188.4263 0008995 321.1268  38.8407 15.19947996523474
TELEOS-1                
1 41169U 15077D   25154.72134919  .00463011  00000+0  12660-2 0  9995
2 41169  14.9767 329.1587 0004125  26.3653 333.6888 15.91648956525486
GAOFEN-4                
1 41194U 15083A   25155.60387205 -.00000328  00000+0  00000+0 0  9997
2 41194   0.0458 266.3890 0004634 262.8947  47.0812  1.00266558 34740
JASON-3                 
1 41240U 16002A   25155.58883941 -.00000047  00000+0  62287-4 0  9994
2 41240  66.0400 199.6230 0008218 269.7230  90.2844 12.81184892438632
SENTINEL-3A             
1 41335U 16011A   25155.56712626  .00000154  00000+0  81869-4 0  9993
2 41335  98.6256 223.3374 0001299 109.1830 250.9491 14.26739672484217
ZIYUAN 3-2 (ZY 3-2)     
1 41556U 16033A   25155.44861321  .00005018  00000+0  22672-3 0  9996
2 41556  97.4192 232.5658 0008696 175.6154 184.5160 15.21373405500555
CARTOSAT-2C             
1 41599U 16040A   25155.59424493  .00004830  00000+0  23182-3 0  9990
2 41599  97.4227 215.8444 0011502  14.1075 346.0479 15.19284000496389
SKYSAT-C1               
1 41601U 16040C   25155.09405517  .00010868  00000+0  37878-3 0  9990
2 41601  97.0063 203.0925 0003716  99.2920 260.8742 15.29796972499961
LAPAN-A3                
1 41603U 16040E   25155.59490205  .00003250  00000+0  11490-3 0  9994
2 41603  97.1368 160.3984 0009125 290.7680  69.2583 15.29828572497024
BIROS                   
1 41604U 16040F   25155.54150363  .00025661  00000+0  29625-3 0  9997
2 41604  97.0870 184.4343 0005854 169.1480 190.9906 15.61877706498717
GAOFEN-3                
1 41727U 16049A   25155.59888278  .00000070  00000+0  34398-4 0  9991
2 41727  98.4028 164.0357 0001251 112.4964 247.6358 14.42155303464227
SKYSAT-C4               
1 41771U 16058B   25155.37513634  .00008315  00000+0  23465-3 0  9999
2 41771  96.9567 190.4392 0002594 143.5297 216.6125 15.36616136487249
SKYSAT-C5               
1 41772U 16058C   25155.42222837  .00006681  00000+0  19254-3 0  9993
2 41772  97.1010 206.1777 0006728  77.3027 282.8969 15.36023386485794
SKYSAT-C2               
1 41773U 16058D   25155.56481967  .00008093  00000+0  25844-3 0  9991
2 41773  97.0543 188.6139 0003230   4.6879 355.4393 15.32714665487045
SKYSAT-C3               
1 41774U 16058E   25155.60034897  .00009729  00000+0  26511-3 0  9992
2 41774  96.9536 198.9464 0002209 120.2639 239.8826 15.37660686487836
ALSAT 1B                
1 41785U 16059C   25155.51217082  .00000496  00000+0  86858-4 0  9997
2 41785  97.7884 175.4367 0009503   9.5540 350.5847 14.71829575465010
PATHFINDER 1            
1 41787U 16059E   25155.54874540  .00000913  00000+0  17063-3 0  9995
2 41787  97.8127 167.2035 0028078 332.7924  27.1808 14.66920724464339
SCATSAT 1               
1 41790U 16059H   25155.53745016  .00001544  00000+0  21513-3 0  9999
2 41790  98.1694 209.6106 0056500  24.8977 335.4939 14.78205863 45770
GOKTURK 1A              
1 41875U 16073A   25155.51923170  .00000499  00000+0  10690-3 0  9998
2 41875  98.1148  50.6319 0001381  85.5269 274.6091 14.62809257453612
RESOURCESAT-2A          
1 41877U 16074A   25155.53937967  .00000168  00000+0  96220-4 0  9999
2 41877  98.6055 227.1235 0002058  70.8334 289.3067 14.21679725440641
CARTOSAT-2D             
1 41948U 17008A   25155.42941645  .00004327  00000+0  20845-3 0  9992
2 41948  97.4618 215.4902 0006537 119.5037 240.6851 15.19250298460225
SENTINEL-2B             
1 42063U 17013A   25155.58513626  .00000159  00000+0  77360-4 0  9992
2 42063  98.5697 230.7866 0001092  93.6249 266.5059 14.30821631430647
ZHUHAI-1 02 (CAS-4B)    
1 42759U 17034B   25155.61125320  .00055584  00000+0  59474-3 0  9998
2 42759  43.0080 351.4853 0021414 258.4688 101.3772 15.62760075441825
NUSAT-3 (MILANESAT)     
1 42760U 17034C   25155.60827230  .00368618  61209-4  91246-3 0  9999
2 42760  42.9875 310.5819 0023216 309.1945  50.6870 15.94625859442301
ZHUHAI-1 01 (CAS-4A)    
1 42761U 17034D   25155.58451060  .00060535  00000+0  61544-3 0  9993
2 42761  43.0119 348.8546 0022734 262.3111  97.5172 15.63986465441836
CARTOSAT-2E             
1 42767U 17036C   25155.57634800  .00005300  00000+0  25529-3 0  9997
2 42767  97.4781 215.3065 0003763 170.8182 189.3122 15.19163008440819
FORMOSAT-5              
1 42920U 17049A   25155.54177668  .00000269  00000+0  79329-4 0  9990
2 42920  98.2590 233.4832 0011668 153.3347 206.8450 14.50875964411915
SENTINEL-5P             
1 42969U 17064A   25155.53987321  .00000080  00000+0  58927-4 0  9996
2 42969  98.7580  96.0853 0000983  90.6689 269.4600 14.19525389395986
SKYSAT-C11              
1 42987U 17068A   25155.33059444  .00010742  00000+0  27714-3 0  9999
2 42987  97.3927 289.7814 0001631 112.2709 247.8710 15.39346324424808
SKYSAT-C10              
1 42988U 17068B   25155.36418178  .00007374  00000+0  24733-3 0  9991
2 42988  97.4038 286.1377 0002122  89.0774 271.0710 15.31187275424503
SKYSAT-C9               
1 42989U 17068C   25155.29834896  .00005281  00000+0  16354-3 0  9998
2 42989  97.3963 284.8079 0012467  84.5457 275.7207 15.33820529424729
